[
  {
    "COMMENT": "GENERATED VIA SPACETRACK.ORG API",
    "ORIGINATOR": "18 SPCS",
    "NORAD_CAT_ID": "46984",
    "OBJECT_NAME": "S6 MICHAEL FREILICH",
    "OBJECT_TYPE": "PAYLOAD",
    "CLASSIFICATION_TYPE": "U",
    "INTLDES": "20086A",
    "EPOCH": "2023-06-11 23:32:00",
    "EPOCH_MICROSECONDS": "910176",
    "MEAN_MOTION": "12.80929274",
    "ECCENTRICITY": "0.0008016",
    "INCLINATION": "66.0415",
    "RA_OF_ASC_NODE": "262.2689",
    "ARG_OF_PERICENTER": "269.6648",
    "MEAN_ANOMALY": "90.3448",
    "EPHEMERIS_TYPE": "0",
    "ELEMENT_SET_NO": "999",
    "REV_AT_EPOCH": "11941",
    "BSTAR": "-0.000023514",
    "MEAN_MOTION_DOT": "-0.00000066",
    "MEAN_MOTION_DDOT": "0",
    "FILE": "3930977",
    "TLE_LINE0": "0 S6 MICHAEL FREILICH",
    "TLE_LINE1": "1 46984U 20086A   23162.98056609 -.00000066  00000-0 -23514-4 0  9997",
    "TLE_LINE2": "2 46984  66.0415 262.2689 0008016 269.6648  90.3448 12.80929274119414",
    "OBJECT_ID": "2020-086A",
    "OBJECT_NUMBER": "46984",
    "SEMIMAJOR_AXIS": "7715.873",
    "PERIOD": "112.418",
    "APOGEE": "1343.923",
    "PERIGEE": "1331.553",
    "DECAYED": "0"
  },
  {
    "COMMENT": "GENERATED VIA SPACETRACK.ORG API",
    "ORIGINATOR": "18 SPCS",
    "NORAD_CAT_ID": "46984",
    "OBJECT_NAME": "S6 MICHAEL FREILICH",
    "OBJECT_TYPE": "PAYLOAD",
    "CLASSIFICATION_TYPE": "U",
    "INTLDES": "20086A",
    "EPOCH": "2023-06-12 12:39:01",
    "EPOCH_MICROSECONDS": "256832",
    "MEAN_MOTION": "12.80929288",
    "ECCENTRICITY": "0.000802",
    "INCLINATION": "66.0414",
    "RA_OF_ASC_NODE": "261.1337",
    "ARG_OF_PERICENTER": "269.5982",
    "MEAN_ANOMALY": "90.4114",
    "EPHEMERIS_TYPE": "0",
    "ELEMENT_SET_NO": "999",
    "REV_AT_EPOCH": "11935",
    "BSTAR": "-0.000022101",
    "MEAN_MOTION_DOT": "-0.00000066",
    "MEAN_MOTION_DDOT": "0",
    "FILE": "3931287",
    "TLE_LINE0": "0 S6 MICHAEL FREILICH",
    "TLE_LINE1": "1 46984U 20086A   23163.52709788 -.00000066  00000-0 -22101-4 0  9992",
    "TLE_LINE2": "2 46984  66.0414 261.1337 0008020 269.5982  90.4114 12.80929288119355",
    "OBJECT_ID": "2020-086A",
    "OBJECT_NUMBER": "46984",
    "SEMIMAJOR_AXIS": "7715.873",
    "PERIOD": "112.418",
    "APOGEE": "1343.926",
    "PERIGEE": "1331.550",
    "DECAYED": "0"
  },
  {
    "COMMENT": "GENERATED VIA SPACETRACK.ORG API",
    "ORIGINATOR": "18 SPCS",
    "NORAD_CAT_ID": "46984",
    "OBJECT_NAME": "S6 MICHAEL FREILICH",
    "OBJECT_TYPE": "PAYLOAD",
    "CLASSIFICATION_TYPE": "U",
    "INTLDES": "20086A",
    "EPOCH": "2023-06-13 05:30:53",
    "EPOCH_MICROSECONDS": "132832",
    "MEAN_MOTION": "12.80929325",
    "ECCENTRICITY": "0.0008023",
    "INCLINATION": "66.0414",
    "RA_OF_ASC_NODE": "259.6744",
    "ARG_OF_PERICENTER": "269.5802",
    "MEAN_ANOMALY": "90.4294",
    "EPHEMERIS_TYPE": "0",
    "ELEMENT_SET_NO": "999",
    "REV_AT_EPOCH": "11957",
    "BSTAR": "-0.000019032",
    "MEAN_MOTION_DOT": "-0.00000065",
    "MEAN_MOTION_DDOT": "0",
    "FILE": "3931837",
    "TLE_LINE0": "0 S6 MICHAEL FREILICH",
    "TLE_LINE1": "1 46984U 20086A   23164.22978163 -.00000065  00000-0 -19032-4 0  9993",
    "TLE_LINE2": "2 46984  66.0414 259.6744 0008023 269.5802  90.4294 12.80929325119578",
    "OBJECT_ID": "2020-086A",
    "OBJECT_NUMBER": "46984",
    "SEMIMAJOR_AXIS": "7715.873",
    "PERIOD": "112.418",
    "APOGEE": "1343.928",
    "PERIGEE": "1331.547",
    "DECAYED": "0"
  },
  {
    "COMMENT": "GENERATED VIA SPACETRACK.ORG API",
    "ORIGINATOR": "18 SPCS",
    "NORAD_CAT_ID": "46984",
    "OBJECT_NAME": "S6 MICHAEL FREILICH",
    "OBJECT_TYPE": "PAYLOAD",
    "CLASSIFICATION_TYPE": "U",
    "INTLDES": "20086A",
    "EPOCH": "2023-06-13 13:00:36",
    "EPOCH_MICROSECONDS": "186336",
    "MEAN_MOTION": "12.80929329",
    "ECCENTRICITY": "0.0008025",
    "INCLINATION": "66.0413",
    "RA_OF_ASC_NODE": "259.0257",
    "ARG_OF_PERICENTER": "269.5758",
    "MEAN_ANOMALY": "90.4338",
    "EPHEMERIS_TYPE": "0",
    "ELEMENT_SET_NO": "999",
    "REV_AT_EPOCH": "11948",
    "BSTAR": "-0.000019098",
    "MEAN_MOTION_DOT": "-0.00000065",
    "MEAN_MOTION_DDOT": "0",
    "FILE": "3932134",
    "TLE_LINE0": "0 S6 MICHAEL FREILICH",
    "TLE_LINE1": "1 46984U 20086A   23164.54208549 -.00000065  00000-0 -19098-4 0  9994",
    "TLE_LINE2": "2 46984  66.0413 259.0257 0008025 269.5758  90.4338 12.80929329119485",
    "OBJECT_ID": "2020-086A",
    "OBJECT_NUMBER": "46984",
    "SEMIMAJOR_AXIS": "7715.873",
    "PERIOD": "112.418",
    "APOGEE": "1343.930",
    "PERIGEE": "1331.546",
    "DECAYED": "0"
  },
  {
    "COMMENT": "GENERATED VIA SPACETRACK.ORG API",
    "ORIGINATOR": "18 SPCS",
    "NORAD_CAT_ID": "46984",
    "OBJECT_NAME": "S6 MICHAEL FREILICH",
    "OBJECT_TYPE": "PAYLOAD",
    "CLASSIFICATION_TYPE": "U",
    "INTLDES": "20086A",
    "EPOCH": "2023-06-14 11:29:45",
    "EPOCH_MICROSECONDS": "354624",
    "MEAN_MOTION": "12.80929372",
    "ECCENTRICITY": "0.0008024",
    "INCLINATION": "66.0413",
    "RA_OF_ASC_NODE": "257.0799",
    "ARG_OF_PERICENTER": "269.602",
    "MEAN_ANOMALY": "90.4076",
    "EPHEMERIS_TYPE": "0",
    "ELEMENT_SET_NO": "999",
    "REV_AT_EPOCH": "11973",
    "BSTAR": "0.00000054258",
    "MEAN_MOTION_DOT": "-0.00000061",
    "MEAN_MOTION_DDOT": "0",
    "FILE": "3932866",
    "TLE_LINE0": "0 S6 MICHAEL FREILICH",
    "TLE_LINE1": "1 46984U 20086A   23165.47899716 -.00000061  00000-0  54258-6 0  9993",
    "TLE_LINE2": "2 46984  66.0413 257.0799 0008024 269.6020  90.4076 12.80929372119731",
    "OBJECT_ID": "2020-086A",
    "OBJECT_NUMBER": "46984",
    "SEMIMAJOR_AXIS": "7715.873",
    "PERIOD": "112.418",
    "APOGEE": "1343.929",
    "PERIGEE": "1331.546",
    "DECAYED": "0"
  },
  {
    "COMMENT": "GENERATED VIA SPACETRACK.ORG API",
    "ORIGINATOR": "18 SPCS",
    "NORAD_CAT_ID": "46984",
    "OBJECT_NAME": "S6 MICHAEL FREILICH",
    "OBJECT_TYPE": "PAYLOAD",
    "CLASSIFICATION_TYPE": "U",
    "INTLDES": "20086A",
    "EPOCH": "2023-06-14 11:29:45",
    "EPOCH_MICROSECONDS": "354624",
    "MEAN_MOTION": "12.80929372",
    "ECCENTRICITY": "0.0008024",
    "INCLINATION": "66.0413",
    "RA_OF_ASC_NODE": "257.0799",
    "ARG_OF_PERICENTER": "269.602",
    "MEAN_ANOMALY": "90.4076",
    "EPHEMERIS_TYPE": "0",
    "ELEMENT_SET_NO": "999",
    "REV_AT_EPOCH": "11960",
    "BSTAR": "0.00000054258",
    "MEAN_MOTION_DOT": "-0.00000061",
    "MEAN_MOTION_DDOT": "0",
    "FILE": "3932965",
    "TLE_LINE0": "0 S6 MICHAEL FREILICH",
    "TLE_LINE1": "1 46984U 20086A   23165.47899716 -.00000061  00000-0  54258-6 0  9993",
    "TLE_LINE2": "2 46984  66.0413 257.0799 0008024 269.6020  90.4076 12.80929372119607",
    "OBJECT_ID": "2020-086A",
    "OBJECT_NUMBER": "46984",
    "SEMIMAJOR_AXIS": "7715.873",
    "PERIOD": "112.418",
    "APOGEE": "1343.929",
    "PERIGEE": "1331.546",
    "DECAYED": "0"
  },
  {
    "COMMENT": "GENERATED VIA SPACETRACK.ORG API",
    "ORIGINATOR": "18 SPCS",
    "NORAD_CAT_ID": "46984",
    "OBJECT_NAME": "S6 MICHAEL FREILICH",
    "OBJECT_TYPE": "PAYLOAD",
    "CLASSIFICATION_TYPE": "U",
    "INTLDES": "20086A",
    "EPOCH": "2023-06-15 13:43:46",
    "EPOCH_MICROSECONDS": "59168",
    "MEAN_MOTION": "12.80929378",
    "ECCENTRICITY": "0.0008028",
    "INCLINATION": "66.0412",
    "RA_OF_ASC_NODE": "254.8097",
    "ARG_OF_PERICENTER": "269.5834",
    "MEAN_ANOMALY": "90.4261",
    "EPHEMERIS_TYPE": "0",
    "ELEMENT_SET_NO": "999",
    "REV_AT_EPOCH": "11974",
    "BSTAR": "0.000046255",
    "MEAN_MOTION_DOT": "-0.0000005",
    "MEAN_MOTION_DDOT": "0",
    "FILE": "3933820",
    "TLE_LINE0": "0 S6 MICHAEL FREILICH",
    "TLE_LINE1": "1 46984U 20086A   23166.57206087 -.00000050  00000-0  46255-4 0  9992",
    "TLE_LINE2": "2 46984  66.0412 254.8097 0008028 269.5834  90.4261 12.80929378119745",
    "OBJECT_ID": "2020-086A",
    "OBJECT_NUMBER": "46984",
    "SEMIMAJOR_AXIS": "7715.873",
    "PERIOD": "112.418",
    "APOGEE": "1343.932",
    "PERIGEE": "1331.543",
    "DECAYED": "0"
  },
  {
    "COMMENT": "GENERATED VIA SPACETRACK.ORG API",
    "ORIGINATOR": "18 SPCS",
    "NORAD_CAT_ID": "46984",
    "OBJECT_NAME": "S6 MICHAEL FREILICH",
    "OBJECT_TYPE": "PAYLOAD",
    "CLASSIFICATION_TYPE": "U",
    "INTLDES": "20086A",
    "EPOCH": "2023-06-15 15:36:11",
    "EPOCH_MICROSECONDS": "823840",
    "MEAN_MOTION": "12.80929385",
    "ECCENTRICITY": "0.0008029",
    "INCLINATION": "66.0412",
    "RA_OF_ASC_NODE": "254.6475",
    "ARG_OF_PERICENTER": "269.5928",
    "MEAN_ANOMALY": "90.4167",
    "EPHEMERIS_TYPE": "0",
    "ELEMENT_SET_NO": "999",
    "REV_AT_EPOCH": "11988",
    "BSTAR": "0.000051533",
    "MEAN_MOTION_DOT": "-0.00000049",
    "MEAN_MOTION_DDOT": "0",
    "FILE": "3933996",
    "TLE_LINE0": "0 S6 MICHAEL FREILICH",
    "TLE_LINE1": "1 46984U 20086A   23166.65013685 -.00000049  00000-0  51533-4 0  9994",
    "TLE_LINE2": "2 46984  66.0412 254.6475 0008029 269.5928  90.4167 12.80929385119886",
    "OBJECT_ID": "2020-086A",
    "OBJECT_NUMBER": "46984",
    "SEMIMAJOR_AXIS": "7715.873",
    "PERIOD": "112.418",
    "APOGEE": "1343.933",
    "PERIGEE": "1331.543",
    "DECAYED": "0"
  }
]